{
  "type": "FeatureCollection",
  "features": [
    {
      "type": "Feature",
      "properties": {
        "norad_id": 34036,
        "name": "COSMOS 2251 DEB",
        "group": "cosmos-2251-debris",
        "lat": 6.127126064672202,
        "lon": 144.12092198192613,
        "alt_km": 591.4332761551723,
        "timestamp": "2025-12-16T03:53:27.448809+00:00",
        "meta_object_name": "COSMOS 2251 DEB",
        "meta_object_id": "1993-036HX",
        "meta_epoch": "2025-12-15T05:22:52.514688",
        "meta_mean_motion": 14.95190148,
        "meta_eccentricity": 0.00117377,
        "meta_inclination": 74.0192,
        "meta_ra_of_asc_node": 144.2511,
        "meta_arg_of_pericenter": 175.8431,
        "meta_mean_anomaly": 184.2853,
        "meta_ephemeris_type": 0,
        "meta_classification_type": "U",
        "meta_norad_cat_id": 34036,
        "meta_element_set_no": 999,
        "meta_rev_at_epoch": 88607,
        "meta_bstar": 0.0025585474,
        "meta_mean_motion_dot": 0.00028233,
        "meta_mean_motion_ddot": 0,
        "tle_line1": "1 34036U 93036HX  25349.22421892  .00028233  00000+0  25585-2 0  9994",
        "tle_line2": "2 34036  74.0192 144.2511 0011737 175.8431 184.2853 14.95190148886079"
      },
      "geometry": {
        "type": "Point",
        "coordinates": [
          144.12092198192613,
          6.127126064672202
        ]
      }
    },
    {
      "type": "Feature",
      "properties": {
        "norad_id": 34037,
        "name": "COSMOS 2251 DEB",
        "group": "cosmos-2251-debris",
        "lat": 39.496015720715505,
        "lon": 57.8120238312009,
        "alt_km": 749.623719525076,
        "timestamp": "2025-12-16T03:53:27.448820+00:00",
        "meta_object_name": "COSMOS 2251 DEB",
        "meta_object_id": "1993-036HY",
        "meta_epoch": "2025-12-15T04:16:11.199360",
        "meta_mean_motion": 14.34671243,
        "meta_eccentricity": 0.00519287,
        "meta_inclination": 74.0515,
        "meta_ra_of_asc_node": 45.9802,
        "meta_arg_of_pericenter": 95.2603,
        "meta_mean_anomaly": 265.4478,
        "meta_ephemeris_type": 0,
        "meta_classification_type": "U",
        "meta_norad_cat_id": 34037,
        "meta_element_set_no": 999,
        "meta_rev_at_epoch": 87752,
        "meta_bstar": 0.00044279405,
        "meta_mean_motion_dot": 1.247e-05,
        "meta_mean_motion_ddot": 0,
        "tle_line1": "1 34037U 93036HY  25349.17790740  .00001247  00000+0  44279-3 0  9998",
        "tle_line2": "2 34037  74.0515  45.9802 0051928  95.2603 265.4478 14.34671243877529"
      },
      "geometry": {
        "type": "Point",
        "coordinates": [
          57.8120238312009,
          39.496015720715505
        ]
      }
    },
    {
      "type": "Feature",
      "properties": {
        "norad_id": 34040,
        "name": "COSMOS 2251 DEB",
        "group": "cosmos-2251-debris",
        "lat": -15.156857349308527,
        "lon": -115.32068886893835,
        "alt_km": 1262.7247856424656,
        "timestamp": "2025-12-16T03:53:27.448830+00:00",
        "meta_object_name": "COSMOS 2251 DEB",
        "meta_object_id": "1993-036JB",
        "meta_epoch": "2025-12-15T07:38:28.783680",
        "meta_mean_motion": 13.68378088,
        "meta_eccentricity": 0.03431038,
        "meta_inclination": 73.9559,
        "meta_ra_of_asc_node": 61.6023,
        "meta_arg_of_pericenter": 14.4481,
        "meta_mean_anomaly": 346.6148,
        "meta_ephemeris_type": 0,
        "meta_classification_type": "U",
        "meta_norad_cat_id": 34040,
        "meta_element_set_no": 999,
        "meta_rev_at_epoch": 83635,
        "meta_bstar": 0.00050672716,
        "meta_mean_motion_dot": 6.31e-06,
        "meta_mean_motion_ddot": 0,
        "tle_line1": "1 34040U 93036JB  25349.31838870  .00000631  00000+0  50673-3 0  9996",
        "tle_line2": "2 34040  73.9559  61.6023 0343103  14.4481 346.6148 13.68378088836354"
      },
      "geometry": {
        "type": "Point",
        "coordinates": [
          -115.32068886893835,
          -15.156857349308527
        ]
      }
    },
    {
      "type": "Feature",
      "properties": {
        "norad_id": 34045,
        "name": "COSMOS 2251 DEB",
        "group": "cosmos-2251-debris",
        "lat": 70.91366497688941,
        "lon": 0.3717385557970238,
        "alt_km": 759.6442948651256,
        "timestamp": "2025-12-16T03:53:27.448840+00:00",
        "meta_object_name": "COSMOS 2251 DEB",
        "meta_object_id": "1993-036JG",
        "meta_epoch": "2025-12-15T08:08:10.100256",
        "meta_mean_motion": 14.34070288,
        "meta_eccentricity": 0.00257816,
        "meta_inclination": 74.0393,
        "meta_ra_of_asc_node": 306.0753,
        "meta_arg_of_pericenter": 28.8072,
        "meta_mean_anomaly": 122.6236,
        "meta_ephemeris_type": 0,
        "meta_classification_type": "U",
        "meta_norad_cat_id": 34045,
        "meta_element_set_no": 999,
        "meta_rev_at_epoch": 88070,
        "meta_bstar": 0.00010164652,
        "meta_mean_motion_dot": 2.59e-06,
        "meta_mean_motion_ddot": 0,
        "tle_line1": "1 34045U 93036JG  25349.33900579  .00000259  00000+0  10165-3 0  9997",
        "tle_line2": "2 34045  74.0393 306.0753 0025781  28.8072 122.6236 14.34070288880700"
      },
      "geometry": {
        "type": "Point",
        "coordinates": [
          0.3717385557970238,
          70.91366497688941
        ]
      }
    },
    {
      "type": "Feature",
      "properties": {
        "norad_id": 34046,
        "name": "COSMOS 2251 DEB",
        "group": "cosmos-2251-debris",
        "lat": -39.67204172556844,
        "lon": -162.18551071077192,
        "alt_km": 780.487365430773,
        "timestamp": "2025-12-16T03:53:27.448850+00:00",
        "meta_object_name": "COSMOS 2251 DEB",
        "meta_object_id": "1993-036JH",
        "meta_epoch": "2025-12-15T02:15:20.565792",
        "meta_mean_motion": 14.46494483,
        "meta_eccentricity": 0.00744337,
        "meta_inclination": 74.0401,
        "meta_ra_of_asc_node": 6.0776,
        "meta_arg_of_pericenter": 88.7877,
        "meta_mean_anomaly": 332.1824,
        "meta_ephemeris_type": 0,
        "meta_classification_type": "U",
        "meta_norad_cat_id": 34046,
        "meta_element_set_no": 999,
        "meta_rev_at_epoch": 87860,
        "meta_bstar": 0.00082965873,
        "meta_mean_motion_dot": 3.064e-05,
        "meta_mean_motion_ddot": 0,
        "tle_line1": "1 34046U 93036JH  25349.09398803  .00003064  00000+0  82966-3 0  9997",
        "tle_line2": "2 34046  74.0401   6.0776 0074433  88.7877 332.1824 14.46494483878606"
      },
      "geometry": {
        "type": "Point",
        "coordinates": [
          -162.18551071077192,
          -39.67204172556844
        ]
      }
    },
    {
      "type": "Feature",
      "properties": {
        "norad_id": 34050,
        "name": "COSMOS 2251 DEB",
        "group": "cosmos-2251-debris",
        "lat": -18.92162210823316,
        "lon": -170.20614854456272,
        "alt_km": 1014.3654315652911,
        "timestamp": "2025-12-16T03:53:27.448861+00:00",
        "meta_object_name": "COSMOS 2251 DEB",
        "meta_object_id": "1993-036JM",
        "meta_epoch": "2025-12-15T04:59:17.286144",
        "meta_mean_motion": 13.961862,
        "meta_eccentricity": 0.02145726,
        "meta_inclination": 74.0883,
        "meta_ra_of_asc_node": 5.8185,
        "meta_arg_of_pericenter": 69.4975,
        "meta_mean_anomaly": 13.6246,
        "meta_ephemeris_type": 0,
        "meta_classification_type": "U",
        "meta_norad_cat_id": 34050,
        "meta_element_set_no": 999,
        "meta_rev_at_epoch": 85466,
        "meta_bstar": 0.00061549966,
        "meta_mean_motion_dot": 1.005e-05,
        "meta_mean_motion_ddot": 0,
        "tle_line1": "1 34050U 93036JM  25349.20783896  .00001005  00000+0  61550-3 0  9994",
        "tle_line2": "2 34050  74.0883   5.8185 0214572  69.4975  13.6246 13.96186200854669"
      },
      "geometry": {
        "type": "Point",
        "coordinates": [
          -170.20614854456272,
          -18.92162210823316
        ]
      }
    },
    {
      "type": "Feature",
      "properties": {
        "norad_id": 34053,
        "name": "COSMOS 2251 DEB",
        "group": "cosmos-2251-debris",
        "lat": -50.0847268652791,
        "lon": -143.6161044500741,
        "alt_km": 1001.4397902729961,
        "timestamp": "2025-12-16T03:53:27.448871+00:00",
        "meta_object_name": "COSMOS 2251 DEB",
        "meta_object_id": "1993-036JQ",
        "meta_epoch": "2025-12-15T03:13:36.627744",
        "meta_mean_motion": 13.49164838,
        "meta_eccentricity": 0.04223664,
        "meta_inclination": 73.8438,
        "meta_ra_of_asc_node": 238.3125,
        "meta_arg_of_pericenter": 26.4656,
        "meta_mean_anomaly": 335.7356,
        "meta_ephemeris_type": 0,
        "meta_classification_type": "U",
        "meta_norad_cat_id": 34053,
        "meta_element_set_no": 999,
        "meta_rev_at_epoch": 82716,
        "meta_bstar": 0.00071936002,
        "meta_mean_motion_dot": 7.63e-06,
        "meta_mean_motion_ddot": 0,
        "tle_line1": "1 34053U 93036JQ  25349.13445171  .00000763  00000+0  71936-3 0  9999",
        "tle_line2": "2 34053  73.8438 238.3125 0422366  26.4656 335.7356 13.49164838827169"
      },
      "geometry": {
        "type": "Point",
        "coordinates": [
          -143.6161044500741,
          -50.0847268652791
        ]
      }
    }
  ]
}